OBJECT_NAME,OBJECT_ID,EPOCH,MEAN_MOTION,ECCENTRICITY,INCLINATION,RA_OF_ASC_NODE,ARG_OF_PERICENTER,MEAN_ANOMALY,EPHEMERIS_TYPE,CLASSIFICATION_TYPE,NORAD_CAT_ID,ELEMENT_SET_NO,REV_AT_EPOCH,BSTAR,MEAN_MOTION_DOT,MEAN_MOTION_DDOT
STARLINK-34906,2025-224Q,2026-03-01T04:46:41.094336,15.30210485,.0001382,53.1579,50.8318,106.1026,254.0127,0,U,65896,999,2357,.83064E-3,.24331E-3,0
STARLINK-34934,2025-224R,2026-03-01T09:01:29.432640,15.30211003,.0001227,53.1595,49.8021,98.3971,261.7169,0,U,65897,999,2355,.10636E-2,.31285E-3,0
STARLINK-34936,2025-224S,2026-03-01T06:02:30.288480,15.30194641,.0001329,53.1595,50.4508,78.5417,281.5733,0,U,65898,999,2358,.59583E-3,.17326E-3,0
STARLINK-35272,2025-224T,2026-03-01T05:38:11.478048,15.30209699,.0001255,53.1608,50.3432,83.5726,276.5418,0,U,65899,999,2357,.89348E-3,.26204E-3,0
STARLINK-35264,2025-224U,2026-03-01T08:41:44.144736,15.30213348,.0001405,53.1601,49.7144,80.9326,279.1834,0,U,65900,999,2359,.76795E-3,.22463E-3,0
STARLINK-35249,2025-224V,2026-03-01T11:15:03.211488,15.30212775,.0001281,53.1582,49.6678,94.9666,265.1481,0,U,65901,999,2359,.81159E-3,.23764E-3,0
STARLINK-35278,2025-224W,2026-03-01T08:22:08.848992,15.30204145,.0001405,53.1597,50.3391,88.2236,271.8926,0,U,65902,999,2359,.55402E-3,.16087E-3,0
STARLINK-35210,2025-224X,2026-03-01T08:35:49.646400,15.30239950,.0001361,53.1606,50.4000,73.0548,287.0602,0,U,65903,999,2357,.90708E-3,.26635E-3,0
STARLINK-35348,2025-224Y,2026-03-01T08:53:53.569824,15.30205835,.0001305,53.1607,49.7688,91.5129,268.6021,0,U,65904,999,2355,.71027E-3,.2074E-3,0
STARLINK-35380,2025-224Z,2026-03-01T06:19:13.124640,15.30197987,.0001233,53.1581,50.5161,94.8868,265.2274,0,U,65905,999,2353,.36312E-3,.1041E-3,0
STARLINK-35385,2025-224AA,2026-03-01T06:00:58.932576,15.30213034,.0001171,53.1590,50.4390,72.8047,287.3082,0,U,65906,999,2356,.10768E-2,.31682E-3,0
STARLINK-35347,2025-224AB,2026-03-01T05:51:51.878016,15.30206917,.0001198,53.1600,50.3998,94.6366,265.4772,0,U,65907,999,2356,.67349E-3,.19645E-3,0
STARLINK-35329,2025-224AC,2026-03-01T06:10:06.057984,15.30209663,.0001199,53.1584,50.4778,77.3314,282.7821,0,U,65908,999,2357,.79929E-3,.23395E-3,0
STARLINK-35387,2025-224AD,2026-03-01T08:29:43.415808,15.30199331,.0001005,53.1600,50.3703,63.5997,296.5107,0,U,65909,999,2354,-.63115E-3,-.19004E-3,0
STARLINK-35523,2025-225A,2026-03-01T10:39:18.417024,15.30234178,.0001257,53.1600,204.1231,94.6960,265.4184,0,U,65910,999,2314,.16243E-2,.4811E-3,0
STARLINK-35160,2025-225B,2026-03-01T09:23:29.444928,15.30217217,.0000713,53.1610,204.5059,69.6334,290.4743,0,U,65911,999,2313,.7309E-3,.21362E-3,0
STARLINK-35508,2025-225C,2026-03-01T09:09:48.775392,15.30219278,.0000652,53.1624,204.4467,103.9458,256.1616,0,U,65912,999,2313,.98377E-3,.28908E-3,0
STARLINK-35472,2025-225D,2026-03-01T10:34:45.615072,15.30251127,.0001011,53.1590,204.1039,58.3450,301.7649,0,U,65913,999,2314,.10992E-2,.32389E-3,0
STARLINK-35524,2025-225E,2026-03-01T09:35:29.817024,15.30248956,.000117,53.1601,203.8471,54.8901,305.2209,0,U,65914,999,2314,.11493E-2,.33887E-3,0
STARLINK-35539,2025-225F,2026-03-01T10:22:35.580864,15.30233225,.0001038,53.1565,204.0679,97.6796,262.4322,0,U,65915,999,2314,.14865E-2,.43974E-3,0
STARLINK-35521,2025-225G,2026-03-01T10:28:40.052352,15.30221878,.0001025,53.1566,204.0754,91.5930,268.5188,0,U,65916,999,2314,.90505E-3,.2656E-3,0
STARLINK-35478,2025-225H,2026-03-01T10:33:13.675104,15.30226625,.0001195,53.1591,204.0951,83.2939,276.8198,0,U,65917,999,2314,.11886E-2,.35038E-3,0
STARLINK-35516,2025-225J,2026-03-01T10:04:21.255744,15.30225998,.0001244,53.1539,203.9695,84.8366,275.2777,0,U,65918,999,2314,.10728E-2,.31575E-3,0
STARLINK-35519,2025-225K,2026-03-01T09:30:55.556640,15.30220513,.0000831,53.1593,203.8224,93.3975,266.7121,0,U,65919,999,2314,.12696E-2,.37457E-3,0
STARLINK-33902,2025-225L,2026-03-01T09:21:58.106304,15.30219242,.0000696,53.1585,204.4961,85.7752,274.3328,0,U,65920,999,2313,.9687E-3,.28458E-3,0
STARLINK-35530,2025-225M,2026-03-01T09:17:26.365344,15.30160823,.0001254,53.1590,204.4770,104.6085,255.5055,0,U,65921,999,2313,.14759E-2,.43555E-3,0
STARLINK-35544,2025-225N,2026-03-01T09:12:51.594336,15.30239642,.0000498,53.1606,204.4574,62.6642,297.4409,0,U,65922,999,2313,.22163E-2,.65945E-3,0
STARLINK-35484,2025-225P,2026-03-01T09:55:14.952000,15.30242409,.0000906,53.1580,203.9295,319.4560,40.6373,0,U,65923,999,2314,.99348E-3,.29219E-3,0
STARLINK-34994,2025-225Q,2026-03-01T09:50:42.338400,15.30233482,.0001634,53.1598,203.9102,84.0812,276.0375,0,U,65924,999,2314,.18042E-2,.53518E-3,0
STARLINK-35458,2025-225R,2026-03-01T09:41:33.598176,15.30227506,.000068,53.1588,203.8682,94.6787,265.4292,0,U,65925,999,2314,.14031E-2,.41465E-3,0
STARLINK-35492,2025-225S,2026-03-01T09:46:07.133664,15.30214789,.0000702,53.1590,203.8894,36.1969,323.9079,0,U,65926,999,2314,.13143E-2,.38789E-3,0
STARLINK-35494,2025-225T,2026-03-01T09:26:31.634880,15.30214800,.0000831,53.1586,204.5135,105.4785,254.6307,0,U,65927,999,2313,.10238E-2,.301E-3,0
STARLINK-35493,2025-225U,2026-03-01T10:37:47.171712,15.30230888,.0001055,53.1610,204.1138,78.4827,281.6292,0,U,65928,999,2314,.12606E-2,.37199E-3,0
STARLINK-35175,2025-225V,2026-03-01T10:18:01.946016,15.30229391,.0001238,53.1577,204.0246,100.4425,259.6716,0,U,65929,999,2314,.14529E-2,.4296E-3,0
STARLINK-35513,2025-225W,2026-03-01T09:08:18.030336,15.30209738,.0001485,53.1612,204.4357,136.6785,223.4333,0,U,65930,999,2313,.11962E-2,.35247E-3,0
STARLINK-35526,2025-225X,2026-03-01T10:13:28.887456,15.30220811,.0001148,53.1567,204.0062,88.5360,271.5772,0,U,65931,999,2314,.11145E-2,.32815E-3,0
STARLINK-35436,2025-225Y,2026-03-01T10:08:54.759264,15.30222101,.000061,53.1577,203.9862,30.8507,329.2530,0,U,65932,999,2314,.12256E-2,.36142E-3,0
STARLINK-35192,2025-225Z,2026-03-01T09:25:00.478560,15.30229931,.0001149,53.1592,204.5075,74.2047,285.9081,0,U,65933,999,2313,.1372E-2,.40536E-3,0
STARLINK-33921,2025-225AA,2026-03-01T09:59:47.582016,15.30226393,.0000912,53.1568,203.9455,96.7957,263.3148,0,U,65934,999,2225,.11273E-2,.33204E-3,0
STARLINK-35155,2025-225AB,2026-03-01T09:06:46.337472,15.30226158,.0001282,53.1591,204.4287,88.0792,272.0355,0,U,65935,999,2224,.10448E-2,.30738E-3,0
STARLINK-35161,2025-225AC,2026-03-01T09:20:27.011328,15.30222144,.0001433,53.1583,204.4862,86.2419,273.8746,0,U,65936,999,2224,.1059E-2,.31159E-3,0
STARLINK-35473,2025-225AD,2026-02-28T16:01:18.311520,15.30222736,.00012101,53.1602,207.8045,79.6997,280.4140,0,U,65937,999,2213,.13357553E-2,.3944E-3,0
STARLINK-34849,2025-232A,2026-03-01T11:00:21.624768,15.30186389,.0001351,53.1585,142.2695,53.8568,306.2558,0,U,66005,999,2216,.10696E-3,.2809E-4,0
STARLINK-35336,2025-232B,2026-03-01T11:27:33.303456,15.30204200,.000192,53.1603,141.6690,30.9342,329.1772,0,U,66006,999,2217,.1282E-2,.3781E-3,0
STARLINK-35196,2025-232C,2026-03-01T11:56:25.496448,15.30190905,.0001195,53.1593,141.7980,69.3127,290.8002,0,U,66007,999,2217,.11675E-2,.3437E-3,0
STARLINK-35236,2025-232D,2026-03-01T10:54:17.006400,15.30191650,.0001019,53.1577,142.2370,64.3274,295.7832,0,U,66008,999,2215,.45077E-3,.13011E-3,0
STARLINK-35276,2025-232E,2026-03-01T10:40:36.417216,15.30192968,.0001209,53.1586,142.1822,85.3736,274.7403,0,U,66009,999,2215,.62914E-3,.18316E-3,0
STARLINK-35297,2025-232F,2026-03-01T11:12:31.122432,15.30192276,.0001219,53.1591,142.3165,65.5449,294.5679,0,U,66010,999,2216,.66342E-3,.19336E-3,0
STARLINK-35256,2025-232G,2026-03-01T11:47:18.517920,15.30209033,.0001445,53.1597,141.7541,39.5080,320.6026,0,U,66011,999,2218,.89964E-3,.26388E-3,0
STARLINK-35293,2025-232H,2026-03-01T11:38:11.452128,15.30188504,.0001726,53.1609,141.7157,40.7072,319.4058,0,U,66012,999,2218,.89406E-3,.26205E-3,0
STARLINK-35307,2025-232J,2026-03-01T12:25:17.658336,15.30174063,.000126,53.1577,141.9242,75.7869,284.3272,0,U,66013,999,2218,.10492E-2,.30819E-3,0
STARLINK-35395,2025-232K,2026-03-01T12:05:31.666272,15.30225467,.0001297,53.1588,141.8370,64.3000,295.8135,0,U,66014,999,2218,.1211E-2,.35708E-3,0
STARLINK-34622,2025-232L,2026-03-01T11:09:28.839168,15.30176972,.000136,53.1593,142.2985,92.5751,267.5405,0,U,66015,999,2216,.15931E-3,.4359E-4,0
STARLINK-35243,2025-232M,2026-03-01T11:18:35.834112,15.30184329,.0001417,53.1602,142.3371,85.5332,274.5831,0,U,66016,999,2217,.28785E-3,.8171E-4,0
STARLINK-35398,2025-232N,2026-03-01T10:55:47.698752,15.30186159,.0001188,53.1573,142.2438,40.3755,319.7333,0,U,66017,999,2217,.58868E-3,.17109E-3,0
STARLINK-35376,2025-232P,2026-03-01T11:21:38.489760,15.30186819,.0001693,53.1600,142.3551,55.6316,304.4844,0,U,66018,999,2217,.56794E-3,.16492E-3,0
STARLINK-35382,2025-232Q,2026-03-01T11:03:24.071328,15.30192224,.0001259,53.1564,142.2783,55.6841,304.4279,0,U,66019,999,2217,.65751E-3,.1916E-3,0
STARLINK-35430,2025-232R,2026-03-01T12:10:05.860992,15.30189794,.000136,53.1585,141.8556,85.3658,274.7498,0,U,66020,999,2216,.89795E-3,.26321E-3,0
STARLINK-35432,2025-232S,2026-03-01T12:19:13.204128,15.30185634,.0001185,53.1579,141.8941,69.6872,290.4256,0,U,66021,999,2218,.48539E-3,.14037E-3,0
STARLINK-35340,2025-232T,2026-03-01T12:00:59.026752,15.30188815,.0001286,53.1590,141.8127,72.8713,287.2428,0,U,66022,999,2218,.30761E-3,.8759E-4,0
STARLINK-35394,2025-232U,2026-03-01T11:51:51.972192,15.30191324,.0001255,53.1603,141.7766,68.9518,291.1617,0,U,66023,999,2218,.85395E-3,.25011E-3,0
STARLINK-35410,2025-232V,2026-03-01T11:32:06.936576,15.30226784,.0002165,53.1614,141.6866,20.9557,339.1533,0,U,66024,999,2218,.93507E-3,.27461E-3,0
STARLINK-35280,2025-232W,2026-03-01T11:42:44.953920,15.30201153,.00014,53.1601,141.7331,46.8730,313.2388,0,U,66025,999,2218,.11449E-2,.33706E-3,0
STARLINK-34812,2025-232X,2026-03-01T11:26:11.709888,15.30224841,.0001147,53.1599,142.3707,33.1358,326.9714,0,U,66026,999,2216,.81577E-3,.23898E-3,0
STARLINK-35341,2025-232Y,2026-03-01T11:23:09.538944,15.30188024,.0001285,53.1598,142.3523,61.5390,298.5740,0,U,66027,999,2217,.50297E-3,.14561E-3,0
STARLINK-35339,2025-232Z,2026-03-01T11:04:55.124832,15.30182406,.0000999,53.1578,142.2746,73.8945,286.2165,0,U,66028,999,2217,.28611E-3,.8119E-4,0
